UCLSat
1 42765U 17036A   17215.33102462  .00001215  00000-0  58234-4 0  9993
2 42765 097.4466 274.6177 0013822 107.9346 252.3398 15.20754873006978
Object B
1 42766U 17036B   17215.56239281  .00000874  00000-0  44252-4 0  9994
2 42766 097.4470 274.7694 0018075 094.2729 266.0572 15.19496375006285
Object C
1 42767U 17036C   17215.19309291  .00000470  00000-0  25500-4 0  9990
2 42767 097.4460 274.3410 0010563 098.0220 262.2213 15.19256610006229
LituanicaSAT 2
1 42768U 17036D   17215.16428184  .00001712  00000-0  83215-4 0  9998
2 42768 097.4467 274.3814 0018153 098.8331 261.4960 15.19645410006230
Object E
1 42769U 17036E   17215.36085678  .00000590  00000-0  30831-4 0  9997
2 42769 097.4468 274.5790 0017559 096.3306 263.9929 15.19625712006180
InflateSail
1 42770U 17036F   17215.14909021  .00171176  00000-0  54819-2 0  9991
2 42770 097.4493 274.7078 0014279 153.6003 206.5969 15.31577628006181
Object G
1 42771U 17036G   17215.35724329  .00001634  00000-0  79226-4 0  9993
2 42771 097.4468 274.5834 0017217 097.5596 262.7595 15.19808634006202
Object H
1 42772U 17036H   17215.35573308  .00001667  00000-0  80640-4 0  9991
2 42772 097.4467 274.5848 0016925 097.1042 263.2118 15.19863034006206
Object J
1 42773U 17036J   17215.15687916  .00001661  00000-0  80250-4 0  9992
2 42773 097.4468 274.3922 0016696 097.7234 262.5897 15.19915972006174
Object K
1 42774U 17036K   17215.15628857  .00001366  00000-0  66584-4 0  9998
2 42774 097.4470 274.3944 0016616 097.5611 262.7512 15.19923786006168
Aalto 1
1 42775U 17036L   17215.35128554  .00000814  00000-0  40898-4 0  9997
2 42775 097.4469 274.5921 0016199 095.8391 264.4691 15.19989225006208
URSA MAIOR
1 42776U 17036M   17215.41611404  .00000834  00000-0  41797-4 0  9997
2 42776 097.4471 274.6597 0016071 095.9772 264.3295 15.20027179006218
COMPASS 2
1 42777U 17036N   17215.47484009  .00001385  00000-0  66719-4 0  9996
2 42777 097.4479 274.7393 0015165 099.9771 260.3176 15.20318871006214
Max Valier Sat
1 42778U 17036P   17215.47173877  .00000963  00000-0  47262-4 0  9998
2 42778 097.4484 274.7472 0014680 101.0933 259.1954 15.20408706006212
Object Q
1 42779U 17036Q   17215.40376499  .00001811  00000-0  85788-4 0  9995
2 42779 097.4471 274.6764 0014703 106.1256 254.1599 15.20519721006199
Object R
1 42780U 17036R   17215.40305158  .00001453  00000-0  69434-4 0  9993
2 42780 097.4469 274.6756 0014563 105.8952 254.3890 15.20536303006205
Object S
1 42781U 17036S   17215.40245687  .00001681  00000-0  79768-4 0  9998
2 42781 097.4469 274.6759 0014524 106.2456 254.0378 15.20570576006196
Object T
1 42782U 17036T   17215.40170109  .00001735  00000-0  82139-4 0  9991
2 42782 097.4470 274.6781 0014380 106.0671 254.2149 15.20598543006193
Object U
1 42783U 17036U   17215.40108783  .00001022  00000-0  49703-4 0  9990
2 42783 097.4468 274.6779 0014406 107.4520 252.8291 15.20587993006206
Pegasus
1 42784U 17036V   17215.46610717  .00001114  00000-0  53856-4 0  9998
2 42784 097.4469 274.7446 0014345 107.4637 252.8167 15.20622899006219
Object W
1 42785U 17036W   17215.40009311  .00000446  00000-0  23478-4 0  9999
2 42785 097.4470 274.6804 0014294 107.6021 252.6777 15.20615161006276
Object X
1 42786U 17036X   17215.46462406  .00000422  00000-0  22315-4 0  9997
2 42786 097.4469 274.7466 0014113 107.7118 252.5659 15.20660088006285
NUDATSat
1 42787U 17036Y   17215.46327132  .00001617  00000-0  76437-4 0  9995
2 42787 097.4469 274.7478 0014012 107.8862 252.3903 15.20751219006056
SUCHAI 1
1 42788U 17036Z   17215.33208089  .00001305  00000-0  62386-4 0  9993
2 42788 097.4468 274.6169 0014001 108.1108 252.1653 15.20720423006263
SKCUBE
1 42789U 17036AA  17215.33094165  .00001244  00000-0  59548-4 0  9990
2 42789 097.4467 274.6181 0013810 108.0355 252.2387 15.20759668006186
VZLUSAT 1
1 42790U 17036AB  17215.46059608  .00001436  00000-0  68105-4 0  9991
2 42790 097.4465 274.7492 0013544 108.0448 252.2264 15.20840330006203
Object AC
1 42791U 17036AC  17215.45965937  .00001128  00000-0  54125-4 0  9997
2 42791 097.4467 274.7517 0013389 108.3505 251.9188 15.20862783006193
Robusta 1B
1 42792U 17036AD  17215.45925248  .00001282  00000-0  61028-4 0  9990
2 42792 097.4465 274.7508 0013367 108.7287 251.5401 15.20882747006218
Object AE
1 42793U 17036AE  17215.38797382  .00000786  00000-0  38454-4 0  9994
2 42793 097.4464 274.6927 0012408 109.4402 250.8176 15.21066739006277
D-SAT
1 42794U 17036AF  17215.38595585  .00000701  00000-0  34560-4 0  9997
2 42794 097.4463 274.6941 0011576 106.9078 253.3428 15.21136340006194
Object AG
1 42795U 17036AG  17214.59567290  .00001568  00000-0  73337-4 0  9999
2 42795 097.4462 273.9129 0011496 109.7356 250.5121 15.21202962006075
Object U
1 42820U 98067MU  17215.21654252  .00007783  00000-0  11913-3 0  9992
2 42820 051.6389 163.6954 0004301 065.5603 294.5837 15.55398144004194
Object V
1 42821U 98067MV  17215.28146560  .00007682  00000-0  11786-3 0  9994
2 42821 051.6388 163.3793 0004377 067.3952 292.7502 15.55353347004186
Object W
1 42822U 98067MW  17215.28192143  .00007805  00000-0  11972-3 0  9997
2 42822 051.6390 163.3822 0004392 069.6711 290.4752 15.55331431004180
Object X
1 42823U 98067MX  17215.21846590  .00007746  00000-0  11900-3 0  9998
2 42823 051.6391 163.7096 0008005 081.6097 278.5801 15.55287443004179
Object Y
1 42824U 98067MY  17215.21937738  .00007638  00000-0  11769-3 0  9997
2 42824 051.6391 163.7156 0007836 082.7168 277.4713 15.55232174004170
TechnoSat
1 42829U 17042E   17215.53991028  .00000083  00000-0  13925-4 0  9997
2 42829 097.6123 124.5190 0014460 169.3706 190.7821 14.90634734003006
Mayak
1 42830U 17042F   17215.53952112  .00000469  00000-0  53247-4 0  9999
2 42830 097.6128 124.5215 0014629 166.7608 193.3997 14.90672573003006
